{
  "type": "FeatureCollection",
  "features": [
    {
      "type": "Feature",
      "properties": {
        "norad_id": 40362,
        "name": "YAOGAN-26",
        "group": "resource",
        "lat": -49.21151279305872,
        "lon": -6.091964704375099,
        "alt_km": 455.08638518566295,
        "timestamp": "2025-12-10T21:43:21.743708+00:00",
        "meta_object_name": "YAOGAN-26",
        "meta_object_id": "2014-088A",
        "meta_epoch": "2025-12-10T14:08:12.185088",
        "meta_mean_motion": 15.39164473,
        "meta_eccentricity": 0.00065623,
        "meta_inclination": 97.0649,
        "meta_ra_of_asc_node": 345.3389,
        "meta_arg_of_pericenter": 36.2525,
        "meta_mean_anomaly": 323.9165,
        "meta_ephemeris_type": 0,
        "meta_classification_type": "U",
        "meta_norad_cat_id": 40362,
        "meta_element_set_no": 999,
        "meta_rev_at_epoch": 60861,
        "meta_bstar": 0.00033165725,
        "meta_mean_motion_dot": 0.00012812,
        "meta_mean_motion_ddot": 0,
        "tle_line1": "1 40362U 14088A   25344.58902992  .00012812  00000+0  33166-3 0  9993",
        "tle_line2": "2 40362  97.0649 345.3389 0006562  36.2525 323.9165 15.39164473608612"
      },
      "geometry": {
        "type": "Point",
        "coordinates": [
          -6.091964704375099,
          -49.21151279305872
        ]
      }
    },
    {
      "type": "Feature",
      "properties": {
        "norad_id": 40376,
        "name": "SMAP",
        "group": "resource",
        "lat": -20.209207345909352,
        "lon": -7.328620120609708,
        "alt_km": 687.8725314093526,
        "timestamp": "2025-12-10T21:43:21.743718+00:00",
        "meta_object_name": "SMAP",
        "meta_object_id": "2015-003A",
        "meta_epoch": "2025-12-10T13:36:37.880640",
        "meta_mean_motion": 14.63340742,
        "meta_eccentricity": 0.00012021,
        "meta_inclination": 98.1291,
        "meta_ra_of_asc_node": 349.3222,
        "meta_arg_of_pericenter": 88.7299,
        "meta_mean_anomaly": 271.404,
        "meta_ephemeris_type": 0,
        "meta_classification_type": "U",
        "meta_norad_cat_id": 40376,
        "meta_element_set_no": 999,
        "meta_rev_at_epoch": 58003,
        "meta_bstar": 0.00018821335,
        "meta_mean_motion_dot": 9.25e-06,
        "meta_mean_motion_ddot": 0,
        "tle_line1": "1 40376U 15003A   25344.56710510  .00000925  00000+0  18821-3 0  9990",
        "tle_line2": "2 40376  98.1291 349.3222 0001202  88.7299 271.4040 14.63340742580033"
      },
      "geometry": {
        "type": "Point",
        "coordinates": [
          -7.328620120609708,
          -20.209207345909352
        ]
      }
    },
    {
      "type": "Feature",
      "properties": {
        "norad_id": 40536,
        "name": "KOMPSAT-3A",
        "group": "resource",
        "lat": -39.965751581016725,
        "lon": 132.6571737478874,
        "alt_km": 441.37514703251327,
        "timestamp": "2025-12-10T21:43:21.743728+00:00",
        "meta_object_name": "KOMPSAT-3A",
        "meta_object_id": "2015-014A",
        "meta_epoch": "2025-12-10T14:32:57.756192",
        "meta_mean_motion": 15.43819631,
        "meta_eccentricity": 0.00046919,
        "meta_inclination": 97.6792,
        "meta_ra_of_asc_node": 318.8349,
        "meta_arg_of_pericenter": 131.5636,
        "meta_mean_anomaly": 228.6014,
        "meta_ephemeris_type": 0,
        "meta_classification_type": "U",
        "meta_norad_cat_id": 40536,
        "meta_element_set_no": 999,
        "meta_rev_at_epoch": 59262,
        "meta_bstar": 0.00062247562,
        "meta_mean_motion_dot": 0.00028182,
        "meta_mean_motion_ddot": 0,
        "tle_line1": "1 40536U 15014A   25344.60622403  .00028182  00000+0  62248-3 0  9995",
        "tle_line2": "2 40536  97.6792 318.8349 0004691 131.5636 228.6014 15.43819631592629"
      },
      "geometry": {
        "type": "Point",
        "coordinates": [
          132.6571737478874,
          -39.965751581016725
        ]
      }
    },
    {
      "type": "Feature",
      "properties": {
        "norad_id": 40697,
        "name": "SENTINEL-2A",
        "group": "resource",
        "lat": 61.30313485153197,
        "lon": 41.475688339379,
        "alt_km": 782.2792755291102,
        "timestamp": "2025-12-10T21:43:21.743738+00:00",
        "meta_object_name": "SENTINEL-2A",
        "meta_object_id": "2015-028A",
        "meta_epoch": "2025-12-10T14:43:06.236832",
        "meta_mean_motion": 14.3082699,
        "meta_eccentricity": 0.00010781,
        "meta_inclination": 98.5689,
        "meta_ra_of_asc_node": 57.1761,
        "meta_arg_of_pericenter": 88.7171,
        "meta_mean_anomaly": 271.4135,
        "meta_ephemeris_type": 0,
        "meta_classification_type": "U",
        "meta_norad_cat_id": 40697,
        "meta_element_set_no": 999,
        "meta_rev_at_epoch": 54676,
        "meta_bstar": 0.00021302639,
        "meta_mean_motion_dot": 5.15e-06,
        "meta_mean_motion_ddot": 0,
        "tle_line1": "1 40697U 15028A   25344.61326663  .00000515  00000+0  21303-3 0  9995",
        "tle_line2": "2 40697  98.5689  57.1761 0001078  88.7171 271.4135 14.30826990546761"
      },
      "geometry": {
        "type": "Point",
        "coordinates": [
          41.475688339379,
          61.30313485153197
        ]
      }
    },
    {
      "type": "Feature",
      "properties": {
        "norad_id": 40701,
        "name": "GAOFEN-8",
        "group": "resource",
        "lat": 59.866567296228645,
        "lon": -3.580197728580398,
        "alt_km": 437.7391825962077,
        "timestamp": "2025-12-10T21:43:21.743749+00:00",
        "meta_object_name": "GAOFEN-8",
        "meta_object_id": "2015-030A",
        "meta_epoch": "2025-12-10T14:57:45.170208",
        "meta_mean_motion": 15.38445016,
        "meta_eccentricity": 0.0011532,
        "meta_inclination": 97.6914,
        "meta_ra_of_asc_node": 162.6608,
        "meta_arg_of_pericenter": 145.1681,
        "meta_mean_anomaly": 215.0321,
        "meta_ephemeris_type": 0,
        "meta_classification_type": "U",
        "meta_norad_cat_id": 40701,
        "meta_element_set_no": 999,
        "meta_rev_at_epoch": 58238,
        "meta_bstar": 0.00091102596,
        "meta_mean_motion_dot": 0.00034652,
        "meta_mean_motion_ddot": 0,
        "tle_line1": "1 40701U 15030A   25344.62343947  .00034652  00000+0  91103-3 0  9993",
        "tle_line2": "2 40701  97.6914 162.6608 0011532 145.1681 215.0321 15.38445016582384"
      },
      "geometry": {
        "type": "Point",
        "coordinates": [
          -3.580197728580398,
          59.866567296228645
        ]
      }
    },
    {
      "type": "Feature",
      "properties": {
        "norad_id": 40718,
        "name": "CARBONITE 1 (CBNT-1)",
        "group": "resource",
        "lat": 57.37202761622969,
        "lon": 153.92710301437984,
        "alt_km": 621.531859882658,
        "timestamp": "2025-12-10T21:43:21.743759+00:00",
        "meta_object_name": "CARBONITE 1 (CBNT-1)",
        "meta_object_id": "2015-032D",
        "meta_epoch": "2025-12-10T14:58:55.233696",
        "meta_mean_motion": 14.82726328,
        "meta_eccentricity": 0.00142344,
        "meta_inclination": 97.6404,
        "meta_ra_of_asc_node": 165.762,
        "meta_arg_of_pericenter": 188.4403,
        "meta_mean_anomaly": 171.6574,
        "meta_ephemeris_type": 0,
        "meta_classification_type": "U",
        "meta_norad_cat_id": 40718,
        "meta_element_set_no": 999,
        "meta_rev_at_epoch": 56139,
        "meta_bstar": 0.00025854004,
        "meta_mean_motion_dot": 2.04e-05,
        "meta_mean_motion_ddot": 0,
        "tle_line1": "1 40718U 15032D   25344.62425039  .00002040  00000+0  25854-3 0  9992",
        "tle_line2": "2 40718  97.6404 165.7620 0014234 188.4403 171.6574 14.82726328561399"
      },
      "geometry": {
        "type": "Point",
        "coordinates": [
          153.92710301437984,
          57.37202761622969
        ]
      }
    },
    {
      "type": "Feature",
      "properties": {
        "norad_id": 40878,
        "name": "YAOGAN-27",
        "group": "resource",
        "lat": 43.40006089311318,
        "lon": 164.3115953017641,
        "alt_km": 1201.3235423934148,
        "timestamp": "2025-12-10T21:43:21.743770+00:00",
        "meta_object_name": "YAOGAN-27",
        "meta_object_id": "2015-040A",
        "meta_epoch": "2025-12-10T13:44:13.427232",
        "meta_mean_motion": 13.16060358,
        "meta_eccentricity": 0.00076653,
        "meta_inclination": 100.101,
        "meta_ra_of_asc_node": 334.2898,
        "meta_arg_of_pericenter": 292.3572,
        "meta_mean_anomaly": 67.6729,
        "meta_ephemeris_type": 0,
        "meta_classification_type": "U",
        "meta_norad_cat_id": 40878,
        "meta_element_set_no": 999,
        "meta_rev_at_epoch": 49285,
        "meta_bstar": 0.00080080205,
        "meta_mean_motion_dot": 2.62e-06,
        "meta_mean_motion_ddot": 0,
        "tle_line1": "1 40878U 15040A   25344.57237763  .00000262  00000+0  80080-3 0  9993",
        "tle_line2": "2 40878 100.1010 334.2898 0007665 292.3572  67.6729 13.16060358492851"
      },
      "geometry": {
        "type": "Point",
        "coordinates": [
          164.3115953017641,
          43.40006089311318
        ]
      }
    }
  ]
}